{"type": "FeatureCollection", "features": [ {"type": "Feature", "properties": {"norad_id": 34375, "name": "IRIDIUM 33 DEB", "group": "iridium-33-debris", "lat": -26.019721264713894, "lon": 8.373496183470476, "alt_km": 788.6504376384382, "timestamp": "2025-12-02T23:34:15.901590+00:00", "meta": {"OBJECT_NAME": "IRIDIUM 33 DEB", "OBJECT_ID": "1997-051FT", "EPOCH": "2025-12-02T01:18:17.719200", "MEAN_MOTION": 14.17961976, "ECCENTRICITY": 0.01023658, "INCLINATION": 86.4333, "RA_OF_ASC_NODE": 187.0026, "ARG_OF_PERICENTER": 160.3927, "MEAN_ANOMALY": 351.7564, "EPHEMERIS_TYPE": 0, "CLASSIFICATION_TYPE": "U", "NORAD_CAT_ID": 34375, "ELEMENT_SET_NO": 999, "REV_AT_EPOCH": 86560, "BSTAR": 0.00046830706, "MEAN_MOTION_DOT": 1.028e-05, "MEAN_MOTION_DDOT": 0}, "tle": {"line1": "1 34375U 97051FT  25336.05437175  .00001028  00000+0  46831-3 0  9990", "line2": "2 34375  86.4333 187.0026 0102365 160.3927 351.7564 14.17961976865607"}}, "geometry": {"type": "Point", "coordinates": [8.373496183470476, -26.019721264713894]}}, {"type": "Feature", "properties": {"norad_id": 34376, "name": "IRIDIUM 33 DEB", "group": "iridium-33-debris", "lat": 82.12263572429366, "lon": 163.04056470827146, "alt_km": 682.4264990600923, "timestamp": "2025-12-02T23:34:15.901600+00:00", "meta": {"OBJECT_NAME": "IRIDIUM 33 DEB", "OBJECT_ID": "1997-051FU", "EPOCH": "2025-12-02T03:25:12.488160", "MEAN_MOTION": 14.62320389, "ECCENTRICITY": 0.00259524, "INCLINATION": 86.2999, "RA_OF_ASC_NODE": 11.3033, "ARG_OF_PERICENTER": 203.051, "MEAN_ANOMALY": 156.9539, "EPHEMERIS_TYPE": 0, "CLASSIFICATION_TYPE": "U", "NORAD_CAT_ID": 34376, "ELEMENT_SET_NO": 999, "REV_AT_EPOCH": 87852, "BSTAR": 0.0016838438, "MEAN_MOTION_DOT": 8.565e-05, "MEAN_MOTION_DDOT": 0}, "tle": {"line1": "1 34376U 97051FU  25336.14250565  .00008565  00000+0  16838-2 0  9993", "line2": "2 34376  86.2999  11.3033 0025952 203.0510 156.9539 14.62320389878529"}}, "geometry": {"type": "Point", "coordinates": [163.04056470827146, 82.12263572429366]}}, {"type": "Feature", "properties": {"norad_id": 34486, "name": "IRIDIUM 33 DEB", "group": "iridium-33-debris", "lat": -56.5666226994037, "lon": -157.99415310062375, "alt_km": 589.644305415748, "timestamp": "2025-12-02T23:34:15.901610+00:00", "meta": {"OBJECT_NAME": "IRIDIUM 33 DEB", "OBJECT_ID": "1997-051GB", "EPOCH": "2025-12-02T03:28:52.308768", "MEAN_MOTION": 14.95027296, "ECCENTRICITY": 0.00126834, "INCLINATION": 86.3954, "RA_OF_ASC_NODE": 16.9124, "ARG_OF_PERICENTER": 147.5491, "MEAN_ANOMALY": 266.6737, "EPHEMERIS_TYPE": 0, "CLASSIFICATION_TYPE": "U", "NORAD_CAT_ID": 34486, "ELEMENT_SET_NO": 999, "REV_AT_EPOCH": 88828, "BSTAR": 0.0024552903, "MEAN_MOTION_DOT": 0.00026994, "MEAN_MOTION_DDOT": 0}, "tle": {"line1": "1 34486U 97051GB  25336.14504987  .00026994  00000+0  24553-2 0  9994", "line2": "2 34486  86.3954  16.9124 0012683 147.5491 266.6737 14.95027296888282"}}, "geometry": {"type": "Point", "coordinates": [-157.99415310062375, -56.5666226994037]}}, {"type": "Feature", "properties": {"norad_id": 34487, "name": "IRIDIUM 33 DEB", "group": "iridium-33-debris", "lat": -74.83515187997608, "lon": 2.9353560258998024, "alt_km": 768.4514648203294, "timestamp": "2025-12-02T23:34:15.901621+00:00", "meta": {"OBJECT_NAME": "IRIDIUM 33 DEB", "OBJECT_ID": "1997-051GC", "EPOCH": "2025-12-01T15:14:00.920832", "MEAN_MOTION": 14.43192153, "ECCENTRICITY": 0.00317068, "INCLINATION": 86.3445, "RA_OF_ASC_NODE": 17.1579, "ARG_OF_PERICENTER": 163.7221, "MEAN_ANOMALY": 324.8136, "EPHEMERIS_TYPE": 0, "CLASSIFICATION_TYPE": "U", "NORAD_CAT_ID": 34487, "ELEMENT_SET_NO": 999, "REV_AT_EPOCH": 88088, "BSTAR": 0.0002149908, "MEAN_MOTION_DOT": 7.47e-06, "MEAN_MOTION_DDOT": 0}, "tle": {"line1": "1 34487U 97051GC  25335.63473288  .00000747  00000+0  21499-3 0  9992", "line2": "2 34487  86.3445  17.1579 0031706 163.7221 324.8136 14.43192153880889"}}, "geometry": {"type": "Point", "coordinates": [2.9353560258998024, -74.83515187997608]}}, {"type": "Feature", "properties": {"norad_id": 34488, "name": "IRIDIUM 33 DEB", "group": "iridium-33-debris", "lat": 9.787882559793516, "lon": 129.99871743812133, "alt_km": 492.63343354365134, "timestamp": "2025-12-02T23:34:15.901633+00:00", "meta": {"OBJECT_NAME": "IRIDIUM 33 DEB", "OBJECT_ID": "1997-051GD", "EPOCH": "2025-12-02T10:14:15.692064", "MEAN_MOTION": 15.25775894, "ECCENTRICITY": 0.001576, "INCLINATION": 86.3247, "RA_OF_ASC_NODE": 310.9077, "ARG_OF_PERICENTER": 67.3176, "MEAN_ANOMALY": 292.9735, "EPHEMERIS_TYPE": 0, "CLASSIFICATION_TYPE": "U", "NORAD_CAT_ID": 34488, "ELEMENT_SET_NO": 999, "REV_AT_EPOCH": 89082, "BSTAR": 0.0046884, "MEAN_MOTION_DOT": 0.00121875, "MEAN_MOTION_DDOT": 0}, "tle": {"line1": "1 34488U 97051GD  25336.42657051  .00121875  00000+0  46884-2 0  9993", "line2": "2 34488  86.3247 310.9077 0015760  67.3176 292.9735 15.25775894890822"}}, "geometry": {"type": "Point", "coordinates": [129.99871743812133, 9.787882559793516]}}, {"type": "Feature", "properties": {"norad_id": 34492, "name": "IRIDIUM 33 DEB", "group": "iridium-33-debris", "lat": -83.90743817890854, "lon": -56.74880135919978, "alt_km": 678.7778986267986, "timestamp": "2025-12-02T23:34:15.901643+00:00", "meta": {"OBJECT_NAME": "IRIDIUM 33 DEB", "OBJECT_ID": "1997-051GH", "EPOCH": "2025-12-02T11:12:49.891104", "MEAN_MOTION": 14.2523388, "ECCENTRICITY": 0.0190428, "INCLINATION": 86.4708, "RA_OF_ASC_NODE": 338.7817, "ARG_OF_PERICENTER": 271.515, "MEAN_ANOMALY": 243.1192, "EPHEMERIS_TYPE": 0, "CLASSIFICATION_TYPE": "U", "NORAD_CAT_ID": 34492, "ELEMENT_SET_NO": 999, "REV_AT_EPOCH": 84912, "BSTAR": 0.0077483, "MEAN_MOTION_DOT": 0.00022079, "MEAN_MOTION_DDOT": 0}, "tle": {"line1": "1 34492U 97051GH  25336.46724411  .00022079  00000+0  77483-2 0  9992", "line2": "2 34492  86.4708 338.7817 0190428 271.5150 243.1192 14.25233880849121"}}, "geometry": {"type": "Point", "coordinates": [-56.74880135919978, -83.90743817890854]}}, {"type": "Feature", "properties": {"norad_id": 34497, "name": "IRIDIUM 33 DEB", "group": "iridium-33-debris", "lat": 85.08435710044125, "lon": 105.750848281071, "alt_km": 778.181642552735, "timestamp": "2025-12-02T23:34:15.901656+00:00", "meta": {"OBJECT_NAME": "IRIDIUM 33 DEB", "OBJECT_ID": "1997-051GN", "EPOCH": "2025-12-01T05:14:48.727392", "MEAN_MOTION": 14.27398963, "ECCENTRICITY": 0.0080081, "INCLINATION": 86.2784, "RA_OF_ASC_NODE": 57.3223, "ARG_OF_PERICENTER": 16.9295, "MEAN_ANOMALY": 12.6117, "EPHEMERIS_TYPE": 0, "CLASSIFICATION_TYPE": "U", "NORAD_CAT_ID": 34497, "ELEMENT_SET_NO": 999, "REV_AT_EPOCH": 86719, "BSTAR": 0.00069242, "MEAN_MOTION_DOT": 1.774e-05, "MEAN_MOTION_DDOT": 0}, "tle": {"line1": "1 34497U 97051GN  25335.21861953  .00001774  00000+0  69242-3 0  9996", "line2": "2 34497  86.2784  57.3223 0080081  16.9295  12.6117 14.27398963867196"}}, "geometry": {"type": "Point", "coordinates": [105.750848281071, 85.08435710044125]}}, {"type": "Feature", "properties": {"norad_id": 34508, "name": "IRIDIUM 33 DEB", "group": "iridium-33-debris", "lat": -41.001594631685165, "lon": -70.05746644516104, "alt_km": 726.0036964361652, "timestamp": "2025-12-02T23:34:15.901666+00:00", "meta": {"OBJECT_NAME": "IRIDIUM 33 DEB", "OBJECT_ID": "1997-051GZ", "EPOCH": "2025-12-02T09:11:17.146176", "MEAN_MOTION": 14.38260142, "ECCENTRICITY": 0.0065409, "INCLINATION": 86.3694, "RA_OF_ASC_NODE": 107.0325, "ARG_OF_PERICENTER": 206.6433, "MEAN_ANOMALY": 153.14, "EPHEMERIS_TYPE": 0, "CLASSIFICATION_TYPE": "U", "NORAD_CAT_ID": 34508, "ELEMENT_SET_NO": 999, "REV_AT_EPOCH": 87160, "BSTAR": 0.0021431, "MEAN_MOTION_DOT": 6.698e-05, "MEAN_MOTION_DDOT": 0}, "tle": {"line1": "1 34508U 97051GZ  25336.38283734  .00006698  00000+0  21431-2 0  9990", "line2": "2 34508  86.3694 107.0325 0065409 206.6433 153.1400 14.38260142871601"}}, "geometry": {"type": "Point", "coordinates": [-70.05746644516104, -41.001594631685165]}}, {"type": "Feature", "properties": {"norad_id": 34521, "name": "IRIDIUM 33 DEB", "group": "iridium-33-debris", "lat": -63.503075524972296, "lon": -137.8641485009073, "alt_km": 689.6272099599564, "timestamp": "2025-12-02T23:34:15.901676+00:00", "meta": {"OBJECT_NAME": "IRIDIUM 33 DEB", "OBJECT_ID": "1997-051HN", "EPOCH": "2025-12-02T04:24:22.923360", "MEAN_MOTION": 14.63207931, "ECCENTRICITY": 0.00012454, "INCLINATION": 86.3815, "RA_OF_ASC_NODE": 35.1943, "ARG_OF_PERICENTER": 303.8096, "MEAN_ANOMALY": 56.2997, "EPHEMERIS_TYPE": 0, "CLASSIFICATION_TYPE": "U", "NORAD_CAT_ID": 34521, "ELEMENT_SET_NO": 999, "REV_AT_EPOCH": 88318, "BSTAR": 0.0011053606, "MEAN_MOTION_DOT": 5.711e-05, "MEAN_MOTION_DDOT": 0}, "tle": {"line1": "1 34521U 97051HN  25336.18359865  .00005711  00000+0  11054-2 0  9997", "line2": "2 34521  86.3815  35.1943 0001245 303.8096  56.2997 14.63207931883186"}}, "geometry": {"type": "Point", "coordinates": [-137.8641485009073, -63.503075524972296]}}, {"type": "Feature", "properties": {"norad_id": 34525, "name": "IRIDIUM 33 DEB", "group": "iridium-33-debris", "lat": 58.34835185774495, "lon": 56.91282058210582, "alt_km": 741.1037755882862, "timestamp": "2025-12-02T23:34:15.901687+00:00", "meta": {"OBJECT_NAME": "IRIDIUM 33 DEB", "OBJECT_ID": "1997-051HS", "EPOCH": "2025-12-02T11:44:07.375200", "MEAN_MOTION": 14.42863202, "ECCENTRICITY": 0.0006432, "INCLINATION": 86.3736, "RA_OF_ASC_NODE": 51.2183, "ARG_OF_PERICENTER": 118.6369, "MEAN_ANOMALY": 260.0538, "EPHEMERIS_TYPE": 0, "CLASSIFICATION_TYPE": "U", "NORAD_CAT_ID": 34525, "ELEMENT_SET_NO": 999, "REV_AT_EPOCH": 87940, "BSTAR": 0.00052517, "MEAN_MOTION_DOT": 1.772e-05, "MEAN_MOTION_DDOT": 0}, "tle": {"line1": "1 34525U 97051HS  25336.48897425  .00001772  00000+0  52517-3 0  9996", "line2": "2 34525  86.3736  51.2183 0006432 118.6369 260.0538 14.42863202879407"}}, "geometry": {"type": "Point", "coordinates": [56.91282058210582, 58.34835185774495]}}]}